{"type": "FeatureCollection", "features": [ {"type": "Feature", "properties": {"norad_id": 66578, "name": "STARLINK-35743", "group": "last-30-days", "lat": 42.97002618594328, "lon": -145.46681120666565, "alt_km": 409.253835386, "timestamp": "2025-12-12T09:49:07.481469+00:00", "meta": {"OBJECT_NAME": "STARLINK-35743", "OBJECT_ID": "2025-268X", "EPOCH": "2025-12-12T04:00:01.998720", "MEAN_MOTION": 15.50497628, "ECCENTRICITY": 0.000142, "INCLINATION": 43.0003, "RA_OF_ASC_NODE": 124.4486, "ARG_OF_PERICENTER": 264.549, "MEAN_ANOMALY": 271.7444, "EPHEMERIS_TYPE": 0, "CLASSIFICATION_TYPE": "U", "NORAD_CAT_ID": 66578, "ELEMENT_SET_NO": 999, "REV_AT_EPOCH": 457, "BSTAR": 0.0016957, "MEAN_MOTION_DOT": 0.00100128, "MEAN_MOTION_DDOT": 0}, "tle": {"line1": "1 66578U 25268X   25346.16668980  .00100128  00000+0  16957-2 0  9990", "line2": "2 66578  43.0003 124.4486 0001420 264.5490 271.7444 15.50497628  4572"}}, "geometry": {"type": "Point", "coordinates": [-145.46681120666565, 42.97002618594328]}}, {"type": "Feature", "properties": {"norad_id": 66579, "name": "STARLINK-35868", "group": "last-30-days", "lat": 42.905192432197836, "lon": -142.8342797468595, "alt_km": 409.3434021644034, "timestamp": "2025-12-12T09:49:07.481481+00:00", "meta": {"OBJECT_NAME": "STARLINK-35868", "OBJECT_ID": "2025-268Y", "EPOCH": "2025-12-12T04:00:01.998720", "MEAN_MOTION": 15.50544693, "ECCENTRICITY": 0.0001537, "INCLINATION": 43.0003, "RA_OF_ASC_NODE": 124.4438, "ARG_OF_PERICENTER": 266.6533, "MEAN_ANOMALY": 271.5471, "EPHEMERIS_TYPE": 0, "CLASSIFICATION_TYPE": "U", "NORAD_CAT_ID": 66579, "ELEMENT_SET_NO": 999, "REV_AT_EPOCH": 457, "BSTAR": 0.00016101, "MEAN_MOTION_DOT": 9.104e-05, "MEAN_MOTION_DDOT": 0}, "tle": {"line1": "1 66579U 25268Y   25346.16668980  .00009104  00000+0  16101-3 0  9995", "line2": "2 66579  43.0003 124.4438 0001537 266.6533 271.5471 15.50544693  4573"}}, "geometry": {"type": "Point", "coordinates": [-142.8342797468595, 42.905192432197836]}}, {"type": "Feature", "properties": {"norad_id": 66580, "name": "STARLINK-35872", "group": "last-30-days", "lat": 42.7819724035494, "lon": -140.2429775674986, "alt_km": 409.3007704520887, "timestamp": "2025-12-12T09:49:07.481492+00:00", "meta": {"OBJECT_NAME": "STARLINK-35872", "OBJECT_ID": "2025-268Z", "EPOCH": "2025-12-12T04:00:01.998720", "MEAN_MOTION": 15.50494971, "ECCENTRICITY": 0.0001446, "INCLINATION": 43.0003, "RA_OF_ASC_NODE": 124.4394, "ARG_OF_PERICENTER": 266.0536, "MEAN_ANOMALY": 274.076, "EPHEMERIS_TYPE": 0, "CLASSIFICATION_TYPE": "U", "NORAD_CAT_ID": 66580, "ELEMENT_SET_NO": 999, "REV_AT_EPOCH": 457, "BSTAR": 0.001727, "MEAN_MOTION_DOT": 0.00101996, "MEAN_MOTION_DDOT": 0}, "tle": {"line1": "1 66580U 25268Z   25346.16668980  .00101996  00000+0  17270-2 0  9996", "line2": "2 66580  43.0003 124.4394 0001446 266.0536 274.0760 15.50494971  4574"}}, "geometry": {"type": "Point", "coordinates": [-140.2429775674986, 42.7819724035494]}}, {"type": "Feature", "properties": {"norad_id": 66581, "name": "STARLINK-35744", "group": "last-30-days", "lat": 42.59828003364339, "lon": -137.6387890396417, "alt_km": 409.45672179560097, "timestamp": "2025-12-12T09:49:07.481502+00:00", "meta": {"OBJECT_NAME": "STARLINK-35744", "OBJECT_ID": "2025-268AA", "EPOCH": "2025-12-12T04:00:01.998720", "MEAN_MOTION": 15.50550361, "ECCENTRICITY": 0.0001694, "INCLINATION": 43.0004, "RA_OF_ASC_NODE": 124.4336, "ARG_OF_PERICENTER": 286.2322, "MEAN_ANOMALY": 255.7862, "EPHEMERIS_TYPE": 0, "CLASSIFICATION_TYPE": "U", "NORAD_CAT_ID": 66581, "ELEMENT_SET_NO": 999, "REV_AT_EPOCH": 452, "BSTAR": 0.00022691, "MEAN_MOTION_DOT": 0.00012979, "MEAN_MOTION_DDOT": 0}, "tle": {"line1": "1 66581U 25268AA  25346.16668980  .00012979  00000+0  22691-3 0  9993", "line2": "2 66581  43.0004 124.4336 0001694 286.2322 255.7862 15.50550361  4524"}}, "geometry": {"type": "Point", "coordinates": [-137.6387890396417, 42.59828003364339]}}, {"type": "Feature", "properties": {"norad_id": 66582, "name": "STARLINK-35746", "group": "last-30-days", "lat": 42.35791972446701, "lon": -135.074358838773, "alt_km": 409.37526735376014, "timestamp": "2025-12-12T09:49:07.481515+00:00", "meta": {"OBJECT_NAME": "STARLINK-35746", "OBJECT_ID": "2025-268AB", "EPOCH": "2025-12-12T04:00:01.998720", "MEAN_MOTION": 15.50511627, "ECCENTRICITY": 0.000145, "INCLINATION": 43.0003, "RA_OF_ASC_NODE": 124.4284, "ARG_OF_PERICENTER": 270.5109, "MEAN_ANOMALY": 273.4436, "EPHEMERIS_TYPE": 0, "CLASSIFICATION_TYPE": "U", "NORAD_CAT_ID": 66582, "ELEMENT_SET_NO": 999, "REV_AT_EPOCH": 457, "BSTAR": 0.0011187, "MEAN_MOTION_DOT": 0.00065681, "MEAN_MOTION_DDOT": 0}, "tle": {"line1": "1 66582U 25268AB  25346.16668980  .00065681  00000+0  11187-2 0  9999", "line2": "2 66582  43.0003 124.4284 0001450 270.5109 273.4436 15.50511627  4576"}}, "geometry": {"type": "Point", "coordinates": [-135.074358838773, 42.35791972446701]}}, {"type": "Feature", "properties": {"norad_id": 66583, "name": "STARLINK-35941", "group": "last-30-days", "lat": 42.05779317546603, "lon": -132.50744177824654, "alt_km": 409.40697037180234, "timestamp": "2025-12-12T09:49:07.481525+00:00", "meta": {"OBJECT_NAME": "STARLINK-35941", "OBJECT_ID": "2025-268AC", "EPOCH": "2025-12-12T04:00:01.998720", "MEAN_MOTION": 15.50542445, "ECCENTRICITY": 0.0001455, "INCLINATION": 43.0004, "RA_OF_ASC_NODE": 124.4238, "ARG_OF_PERICENTER": 272.4023, "MEAN_ANOMALY": 273.4608, "EPHEMERIS_TYPE": 0, "CLASSIFICATION_TYPE": "U", "NORAD_CAT_ID": 66583, "ELEMENT_SET_NO": 999, "REV_AT_EPOCH": 457, "BSTAR": 0.00031092, "MEAN_MOTION_DOT": 0.00017916, "MEAN_MOTION_DDOT": 0}, "tle": {"line1": "1 66583U 25268AC  25346.16668980  .00017916  00000+0  31092-3 0  9996", "line2": "2 66583  43.0004 124.4238 0001455 272.4023 273.4608 15.50542445  4571"}}, "geometry": {"type": "Point", "coordinates": [-132.50744177824654, 42.05779317546603]}}, {"type": "Feature", "properties": {"norad_id": 66584, "name": "STARLINK-35939", "group": "last-30-days", "lat": 41.701746176681525, "lon": -129.97350423632835, "alt_km": 409.6084180375301, "timestamp": "2025-12-12T09:49:07.481535+00:00", "meta": {"OBJECT_NAME": "STARLINK-35939", "OBJECT_ID": "2025-268AD", "EPOCH": "2025-12-12T04:00:01.998720", "MEAN_MOTION": 15.50493365, "ECCENTRICITY": 0.0001567, "INCLINATION": 43.0004, "RA_OF_ASC_NODE": 124.4192, "ARG_OF_PERICENTER": 275.7531, "MEAN_ANOMALY": 272.0629, "EPHEMERIS_TYPE": 0, "CLASSIFICATION_TYPE": "U", "NORAD_CAT_ID": 66584, "ELEMENT_SET_NO": 999, "REV_AT_EPOCH": 457, "BSTAR": 0.0011444, "MEAN_MOTION_DOT": 0.00067165, "MEAN_MOTION_DDOT": 0}, "tle": {"line1": "1 66584U 25268AD  25346.16668980  .00067165  00000+0  11444-2 0  9996", "line2": "2 66584  43.0004 124.4192 0001567 275.7531 272.0629 15.50493365  4579"}}, "geometry": {"type": "Point", "coordinates": [-129.97350423632835, 41.701746176681525]}}, {"type": "Feature", "properties": {"norad_id": 66585, "name": "STARLINK-35963", "group": "last-30-days", "lat": 41.29236227611515, "lon": -127.4804756094185, "alt_km": 409.6892757663645, "timestamp": "2025-12-12T09:49:07.481545+00:00", "meta": {"OBJECT_NAME": "STARLINK-35963", "OBJECT_ID": "2025-268AE", "EPOCH": "2025-12-12T04:00:01.998720", "MEAN_MOTION": 15.50548946, "ECCENTRICITY": 0.0001788, "INCLINATION": 43.0003, "RA_OF_ASC_NODE": 124.4152, "ARG_OF_PERICENTER": 264.3203, "MEAN_ANOMALY": 285.3761, "EPHEMERIS_TYPE": 0, "CLASSIFICATION_TYPE": "U", "NORAD_CAT_ID": 66585, "ELEMENT_SET_NO": 999, "REV_AT_EPOCH": 457, "BSTAR": 0.00015331, "MEAN_MOTION_DOT": 8.653e-05, "MEAN_MOTION_DDOT": 0}, "tle": {"line1": "1 66585U 25268AE  25346.16668980  .00008653  00000+0  15331-3 0  9994", "line2": "2 66585  43.0003 124.4152 0001788 264.3203 285.3761 15.50548946  4570"}}, "geometry": {"type": "Point", "coordinates": [-127.4804756094185, 41.29236227611515]}}, {"type": "Feature", "properties": {"norad_id": 66586, "name": "TJS-21", "group": "last-30-days", "lat": 62.20303436679301, "lon": -124.64518837508939, "alt_km": 37424.36139412609, "timestamp": "2025-12-12T09:49:07.481558+00:00", "meta": {"OBJECT_NAME": "TJS-21", "OBJECT_ID": "2025-269A", "EPOCH": "2025-12-10T17:31:22.184832", "MEAN_MOTION": 2.00567425, "ECCENTRICITY": 0.6805766, "INCLINATION": 63.269, "RA_OF_ASC_NODE": 162.5612, "ARG_OF_PERICENTER": 269.7806, "MEAN_ANOMALY": 18.6565, "EPHEMERIS_TYPE": 0, "CLASSIFICATION_TYPE": "U", "NORAD_CAT_ID": 66586, "ELEMENT_SET_NO": 999, "REV_AT_EPOCH": 39, "BSTAR": -0.044965385, "MEAN_MOTION_DOT": 1.083e-05, "MEAN_MOTION_DDOT": 0}, "tle": {"line1": "1 66586U 25269A   25344.73011788  .00001083  00000+0 -44965-1 0  9999", "line2": "2 66586  63.2690 162.5612 6805766 269.7806  18.6565  2.00567425   392"}}, "geometry": {"type": "Point", "coordinates": [-124.64518837508939, 62.20303436679301]}}, {"type": "Feature", "properties": {"norad_id": 66587, "name": "CZ-3B R/B", "group": "last-30-days", "lat": 27.25392632215878, "lon": -165.94779196458055, "alt_km": 36530.28511470419, "timestamp": "2025-12-12T09:49:07.481576+00:00", "meta": {"OBJECT_NAME": "CZ-3B R/B", "OBJECT_ID": "2025-269B", "EPOCH": "2025-12-10T19:33:40.006368", "MEAN_MOTION": 2.03086829, "ECCENTRICITY": 0.7519519, "INCLINATION": 51.3442, "RA_OF_ASC_NODE": 170.0917, "ARG_OF_PERICENTER": 228.3676, "MEAN_ANOMALY": 37.5722, "EPHEMERIS_TYPE": 0, "CLASSIFICATION_TYPE": "U", "NORAD_CAT_ID": 66587, "ELEMENT_SET_NO": 999, "REV_AT_EPOCH": 41, "BSTAR": 0.0011692039, "MEAN_MOTION_DOT": 0.00057137, "MEAN_MOTION_DDOT": 1.092514e-06}, "tle": {"line1": "1 66587U 25269B   25344.81504637  .00057137  10925-5  11692-2 0  9994", "line2": "2 66587  51.3442 170.0917 7519519 228.3676  37.5722  2.03086829   418"}}, "geometry": {"type": "Point", "coordinates": [-165.94779196458055, 27.25392632215878]}}]}